start=new Date('2022-05-22T00:00:00.000Z').valueOf();
sats=[{"OBJECT_ID":"2021-021J","NORAD_CAT_ID":"47868","TIME_SYSTEM":"UTC","CLASSIFICATION_TYPE":"U","PERIOD":"95.592","SEMIMAJOR_AXIS":"6925.363","REF_FRAME":"TEME","ECCENTRICITY":"0.00013280","GP_ID":"204192360","LAUNCH_DATE":"2021-03-14","FILE":"3457577","MEAN_MOTION":"15.06395192","APOAPSIS":"548.148","TLE_LINE1":"1 47868U 21021J   22141.85987928 -.00001223  00000-0 -63242-4 0  9996","RCS_SIZE":"LARGE","OBJECT_NAME":"STARLINK-2323","EPHEMERIS_TYPE":"0","BSTAR":"-0.00006324200000","ARG_OF_PERICENTER":"76.5163","OBJECT_TYPE":"PAYLOAD","TLE_LINE2":"2 47868  53.0569 321.8308 0001328  76.5163 283.5974 15.06395192 67866","RA_OF_ASC_NODE":"321.8308","EPOCH":"2022-05-21T20:38:13.569792","INCLINATION":"53.0569","COUNTRY_CODE":"US","DECAY_DATE":null,"REV_AT_EPOCH":"6786","MEAN_MOTION_DDOT":"0.0000000000000","PERIAPSIS":"546.309","ELEMENT_SET_NO":"999","MEAN_ANOMALY":"283.5974","SITE":"AFETR","CENTER_NAME":"EARTH","MEAN_MOTION_DOT":"-0.00001223","MEAN_ELEMENT_THEORY":"SGP4"},{"ELEMENT_SET_NO":"999","MEAN_ANOMALY":"300.5262","SITE":"AFETR","CENTER_NAME":"EARTH","MEAN_MOTION_DOT":"0.00000299","MEAN_ELEMENT_THEORY":"SGP4","OBJECT_TYPE":"PAYLOAD","TLE_LINE2":"2 47869  53.0531  11.5311 0001544  59.5879 300.5262 15.06397938 67273","EPOCH":"2022-05-21T22:17:44.135520","RA_OF_ASC_NODE":"11.5311","COUNTRY_CODE":"US","INCLINATION":"53.0531","REV_AT_EPOCH":"6727","DECAY_DATE":null,"PERIAPSIS":"546.151","MEAN_MOTION_DDOT":"0.0000000000000","LAUNCH_DATE":"2021-03-14","APOAPSIS":"548.289","MEAN_MOTION":"15.06397938","FILE":"3457577","TLE_LINE1":"1 47869U 21021K   22141.92898305  .00000299  00000-0  38943-4 0  9995","RCS_SIZE":"LARGE","OBJECT_NAME":"STARLINK-2324","BSTAR":"0.00003894300000","EPHEMERIS_TYPE":"0","ARG_OF_PERICENTER":"59.5879","OBJECT_ID":"2021-021K","NORAD_CAT_ID":"47869","TIME_SYSTEM":"UTC","CLASSIFICATION_TYPE":"U","PERIOD":"95.592","REF_FRAME":"TEME","SEMIMAJOR_AXIS":"6925.355","ECCENTRICITY":"0.00015440","GP_ID":"204192625"},{"APOAPSIS":"548.591","MEAN_MOTION":"15.06397378","FILE":"3457577","LAUNCH_DATE":"2021-03-14","OBJECT_NAME":"STARLINK-2326","RCS_SIZE":"LARGE","TLE_LINE1":"1 47870U 21021L   22141.88060805  .00001280  00000-0  10483-3 0  9997","ARG_OF_PERICENTER":"49.2907","BSTAR":"0.00010483000000","EPHEMERIS_TYPE":"0","CLASSIFICATION_TYPE":"U","PERIOD":"95.592","OBJECT_ID":"2021-021L","NORAD_CAT_ID":"47870","TIME_SYSTEM":"UTC","ECCENTRICITY":"0.00019770","REF_FRAME":"TEME","SEMIMAJOR_AXIS":"6925.357","GP_ID":"204193361","ELEMENT_SET_NO":"999","SITE":"AFETR","MEAN_ANOMALY":"310.8254","MEAN_MOTION_DOT":"0.00001280","CENTER_NAME":"EARTH","MEAN_ELEMENT_THEORY":"SGP4","OBJECT_TYPE":"PAYLOAD","EPOCH":"2022-05-21T21:08:04.535520","RA_OF_ASC_NODE":"36.7282","TLE_LINE2":"2 47870  53.0578  36.7282 0001977  49.2907 310.8254 15.06397378 66700","REV_AT_EPOCH":"6670","DECAY_DATE":null,"COUNTRY_CODE":"US","INCLINATION":"53.0578","PERIAPSIS":"545.852","MEAN_MOTION_DDOT":"0.0000000000000"},{"NORAD_CAT_ID":"47871","OBJECT_ID":"2021-021M","TIME_SYSTEM":"UTC","CLASSIFICATION_TYPE":"U","PERIOD":"95.592","SEMIMAJOR_AXIS":"6925.361","REF_FRAME":"TEME","ECCENTRICITY":"0.00016390","GP_ID":"204191624","LAUNCH_DATE":"2021-03-14","FILE":"3457577","MEAN_MOTION":"15.06396017","APOAPSIS":"548.361","TLE_LINE1":"1 47871U 21021M   22141.92530123  .00001112  00000-0  93518-4 0  9993","OBJECT_NAME":"STARLINK-2327","RCS_SIZE":"LARGE","EPHEMERIS_TYPE":"0","BSTAR":"0.00009351800000","ARG_OF_PERICENTER":"57.6765","OBJECT_TYPE":"PAYLOAD","TLE_LINE2":"2 47871  53.0556  11.5468 0001639  57.6765 302.4383 15.06396017 67164","RA_OF_ASC_NODE":"11.5468","EPOCH":"2022-05-21T22:12:26.026272","INCLINATION":"53.0556","COUNTRY_CODE":"US","DECAY_DATE":null,"REV_AT_EPOCH":"6716","MEAN_MOTION_DDOT":"0.0000000000000","PERIAPSIS":"546.091","ELEMENT_SET_NO":"999","MEAN_ANOMALY":"302.4383","SITE":"AFETR","CENTER_NAME":"EARTH","MEAN_MOTION_DOT":"0.00001112","MEAN_ELEMENT_THEORY":"SGP4"},{"OBJECT_TYPE":"PAYLOAD","TLE_LINE2":"2 47872  53.0523 313.1447 0007940 280.9791  79.0320 15.42179957 67999","RA_OF_ASC_NODE":"313.1447","EPOCH":"2022-05-21T21:25:19.058016","INCLINATION":"53.0523","COUNTRY_CODE":"US","DECAY_DATE":null,"REV_AT_EPOCH":"6799","MEAN_MOTION_DDOT":"0.0000000000000","PERIAPSIS":"434.265","ELEMENT_SET_NO":"999","MEAN_ANOMALY":"79.0320","SITE":"AFETR","CENTER_NAME":"EARTH","MEAN_MOTION_DOT":"-0.00000381","MEAN_ELEMENT_THEORY":"SGP4","TIME_SYSTEM":"UTC","NORAD_CAT_ID":"47872","OBJECT_ID":"2021-021N","PERIOD":"93.374","CLASSIFICATION_TYPE":"U","SEMIMAJOR_AXIS":"6817.814","REF_FRAME":"TEME","ECCENTRICITY":"0.00079400","GP_ID":"204191874","LAUNCH_DATE":"2021-03-14","MEAN_MOTION":"15.42179957","FILE":"3457577","APOAPSIS":"445.092","TLE_LINE1":"1 47872U 21021N   22141.89258169 -.00000381  00000-0  82050-6 0  9996","OBJECT_NAME":"STARLINK-2328","RCS_SIZE":"LARGE","EPHEMERIS_TYPE":"0","BSTAR":"0.00000082050000","ARG_OF_PERICENTER":"280.9791"},{"ARG_OF_PERICENTER":"75.5748","BSTAR":"0.00010847000000","EPHEMERIS_TYPE":"0","OBJECT_NAME":"STARLINK-2329","RCS_SIZE":"LARGE","TLE_LINE1":"1 47873U 21021P   22141.90686411  .00001335  00000-0  10847-3 0  9995","APOAPSIS":"548.085","FILE":"3457577","MEAN_MOTION":"15.06400954","LAUNCH_DATE":"2021-03-14","GP_ID":"204193111","ECCENTRICITY":"0.00012630","REF_FRAME":"TEME","SEMIMAJOR_AXIS":"6925.346","CLASSIFICATION_TYPE":"U","PERIOD":"95.592","NORAD_CAT_ID":"47873","OBJECT_ID":"2021-021P","TIME_SYSTEM":"UTC","MEAN_ELEMENT_THEORY":"SGP4","MEAN_MOTION_DOT":"0.00001335","CENTER_NAME":"EARTH","SITE":"AFETR","MEAN_ANOMALY":"284.5381","ELEMENT_SET_NO":"999","PERIAPSIS":"546.336","MEAN_MOTION_DDOT":"0.0000000000000","REV_AT_EPOCH":"6715","DECAY_DATE":null,"COUNTRY_CODE":"US","INCLINATION":"53.0550","EPOCH":"2022-05-21T21:45:53.059104","RA_OF_ASC_NODE":"11.6298","TLE_LINE2":"2 47873  53.0550  11.6298 0001263  75.5748 284.5381 15.06400954 67158","OBJECT_TYPE":"PAYLOAD"},{"BSTAR":"0.00006280300000","EPHEMERIS_TYPE":"0","ARG_OF_PERICENTER":"52.0466","TLE_LINE1":"1 47874U 21021Q   22141.78290875  .00000654  00000-0  62803-4 0  9990","RCS_SIZE":"LARGE","OBJECT_NAME":"STARLINK-2330","LAUNCH_DATE":"2021-03-14","APOAPSIS":"548.464","MEAN_MOTION":"15.06403919","FILE":"3457577","GP_ID":"204192875","REF_FRAME":"TEME","SEMIMAJOR_AXIS":"6925.337","ECCENTRICITY":"0.00018230","NORAD_CAT_ID":"47874","OBJECT_ID":"2021-021Q","TIME_SYSTEM":"UTC","CLASSIFICATION_TYPE":"U","PERIOD":"95.592","MEAN_ELEMENT_THEORY":"SGP4","CENTER_NAME":"EARTH","MEAN_MOTION_DOT":"0.00000654","MEAN_ANOMALY":"308.0688","SITE":"AFETR","ELEMENT_SET_NO":"999","PERIAPSIS":"545.939","MEAN_MOTION_DDOT":"0.0000000000000","COUNTRY_CODE":"US","INCLINATION":"53.0568","REV_AT_EPOCH":"6777","DECAY_DATE":null,"TLE_LINE2":"2 47874  53.0568 327.1693 0001823  52.0466 308.0688 15.06403919 67775","EPOCH":"2022-05-21T18:47:23.316000","RA_OF_ASC_NODE":"327.1693","OBJECT_TYPE":"PAYLOAD"},{"ELEMENT_SET_NO":"999","SITE":"AFETR","MEAN_ANOMALY":"267.6054","MEAN_MOTION_DOT":"0.00016490","CENTER_NAME":"EARTH","MEAN_ELEMENT_THEORY":"SGP4","OBJECT_TYPE":"PAYLOAD","RA_OF_ASC_NODE":"21.6652","EPOCH":"2022-05-21T21:33:56.886912","TLE_LINE2":"2 47875  53.0561  21.6652 0001499  92.5106 267.6054 15.06411246 67071","DECAY_DATE":null,"REV_AT_EPOCH":"6707","INCLINATION":"53.0561","COUNTRY_CODE":"US","MEAN_MOTION_DDOT":"0.0000000000000","PERIAPSIS":"546.141","FILE":"3457577","MEAN_MOTION":"15.06411246","APOAPSIS":"548.217","LAUNCH_DATE":"2021-03-14","OBJECT_NAME":"STARLINK-2331","RCS_SIZE":"LARGE","TLE_LINE1":"1 47875U 21021R   22141.89857508  .00016490  00000-0  11230-2 0  9996","ARG_OF_PERICENTER":"92.5106","EPHEMERIS_TYPE":"0","BSTAR":"0.00112300000000","CLASSIFICATION_TYPE":"U","PERIOD":"95.591","OBJECT_ID":"2021-021R","NORAD_CAT_ID":"47875","TIME_SYSTEM":"UTC","ECCENTRICITY":"0.00014990","SEMIMAJOR_AXIS":"6925.314","REF_FRAME":"TEME","GP_ID":"204192111"},{"OBJECT_TYPE":"PAYLOAD","EPOCH":"2022-05-21T21:18:02.128896","RA_OF_ASC_NODE":"21.7135","TLE_LINE2":"2 47876  53.0565  21.7135 0001562  45.7312 314.3805 15.06367327 67022","REV_AT_EPOCH":"6702","DECAY_DATE":null,"COUNTRY_CODE":"US","INCLINATION":"53.0565","PERIAPSIS":"546.232","MEAN_MOTION_DDOT":"0.0000000000000","ELEMENT_SET_NO":"999","SITE":"AFETR","MEAN_ANOMALY":"314.3805","MEAN_MOTION_DOT":"0.00008703","CENTER_NAME":"EARTH","MEAN_ELEMENT_THEORY":"SGP4","PERIOD":"95.594","CLASSIFICATION_TYPE":"U","OBJECT_ID":"2021-021S","NORAD_CAT_ID":"47876","TIME_SYSTEM":"UTC","ECCENTRICITY":"0.00015620","REF_FRAME":"TEME","SEMIMAJOR_AXIS":"6925.449","GP_ID":"204192361","APOAPSIS":"548.395","FILE":"3457577","MEAN_MOTION":"15.06367327","LAUNCH_DATE":"2021-03-14","OBJECT_NAME":"STARLINK-2332","RCS_SIZE":"LARGE","TLE_LINE1":"1 47876U 21021S   22141.88752464  .00008703  00000-0  60296-3 0  9996","ARG_OF_PERICENTER":"45.7312","BSTAR":"0.00060296000000","EPHEMERIS_TYPE":"0"},{"ELEMENT_SET_NO":"999","SITE":"AFETR","MEAN_ANOMALY":"297.4581","MEAN_MOTION_DOT":"0.00001450","CENTER_NAME":"EARTH","MEAN_ELEMENT_THEORY":"SGP4","OBJECT_TYPE":"PAYLOAD","RA_OF_ASC_NODE":"21.6470","EPOCH":"2022-05-21T21:39:16.354368","TLE_LINE2":"2 47877  53.0572  21.6470 0001715  62.6583 297.4581 15.06398596 67013","DECAY_DATE":null,"REV_AT_EPOCH":"6701","INCLINATION":"53.0572","COUNTRY_CODE":"US","MEAN_MOTION_DDOT":"0.0000000000000","PERIAPSIS":"546.030","MEAN_MOTION":"15.06398596","FILE":"3457577","APOAPSIS":"548.406","LAUNCH_DATE":"2021-03-14","OBJECT_NAME":"STARLINK-2333","RCS_SIZE":"LARGE","TLE_LINE1":"1 47877U 21021T   22141.90227262  .00001450  00000-0  11626-3 0  9998","ARG_OF_PERICENTER":"62.6583","EPHEMERIS_TYPE":"0","BSTAR":"0.00011626000000","CLASSIFICATION_TYPE":"U","PERIOD":"95.592","TIME_SYSTEM":"UTC","NORAD_CAT_ID":"47877","OBJECT_ID":"2021-021T","ECCENTRICITY":"0.00017150","SEMIMAJOR_AXIS":"6925.353","REF_FRAME":"TEME","GP_ID":"204192626"}];
